$$SOE
2460714.500000000, A.D. 2025-Feb-08 00:00:00.0000, 5.330985671527330E+08, 4.032182467658568E+06, 2.006893789454455E+07,
2460721.500000000, A.D. 2025-Feb-15 00:00:00.0000, 5.349893559605970E+08, 1.381526229998270E+07, 2.095123672330136E+07,
2460728.500000000, A.D. 2025-Feb-22 00:00:00.0000, 5.367110740530101E+08, 2.359394378202719E+07, 2.182691324591111E+07,
2460735.500000000, A.D. 2025-Mar-01 00:00:00.0000, 5.382651531384809E+08, 3.336522387658697E+07, 2.269577080006760E+07,
2460742.500000000, A.D. 2025-Mar-08 00:00:00.0000, 5.396530671734868E+08, 4.312617220773010E+07, 2.355762014078568E+07,
2460749.500000000, A.D. 2025-Mar-15 00:00:00.0000, 5.408763294324644E+08, 5.287393240929853E+07, 2.441227944794034E+07,
2460756.500000000, A.D. 2025-Mar-22 00:00:00.0000, 5.419364874718752E+08, 6.260572197372343E+07, 2.525957441882015E+07,
2460763.500000000, A.D. 2025-Mar-29 00:00:00.0000, 5.428351195661639E+08, 7.231882976583782E+07, 2.609933804908592E+07,
2460770.500000000, A.D. 2025-Apr-05 00:00:00.0000, 5.435738329395809E+08, 8.201061434693585E+07, 2.693141032891509E+07,
2460777.500000000, A.D. 2025-Apr-12 00:00:00.0000, 5.441542618669821E+08, 9.167850322028539E+07, 2.775563803971049E+07,
2460784.500000000, A.D. 2025-Apr-19 00:00:00.0000, 5.445780654556558E+08, 1.013199921235538E+08, 2.857187459676361E+07,
2460791.500000000, A.D. 2025-Apr-26 00:00:00.0000, 5.448469253787787E+08, 1.109326441715452E+08, 2.937997989657927E+07,
2460798.500000000, A.D. 2025-May-03 00:00:00.0000, 5.449625436728237E+08, 1.205140888745741E+08, 3.017982016021376E+07,
2460805.500000000, A.D. 2025-May-10 00:00:00.0000, 5.449266406259540E+08, 1.300620210469913E+08, 3.097126777093870E+07,
2460812.500000000, A.D. 2025-May-17 00:00:00.0000, 5.447409527924666E+08, 1.395741995703546E+08, 3.175420109975630E+07,
2460819.500000000, A.D. 2025-May-24 00:00:00.0000, 5.444072313054458E+08, 1.490484459618644E+08, 3.252850429862037E+07,
2460826.500000000, A.D. 2025-May-31 00:00:00.0000, 5.439272409032571E+08, 1.584826430635797E+08, 3.329406704865524E+07,
2460833.500000000, A.D. 2025-Jun-07 00:00:00.0000, 5.433027592660540E+08, 1.678747350616311E+08, 3.405078439876410E+07,
2460840.500000000, A.D. 2025-Jun-14 00:00:00.0000, 5.425355742953299E+08, 1.772227281735626E+08, 3.479855685736263E+07,
2460847.500000000, A.D. 2025-Jun-21 00:00:00.0000, 5.416274805522264E+08, 1.865246887367433E+08, 3.553729035874672E+07,
2460854.500000000, A.D. 2025-Jun-28 00:00:00.0000, 5.405802779807289E+08, 1.957787404655491E+08, 3.626689596156965E+07,
2460861.500000000, A.D. 2025-Jul-05 00:00:00.0000, 5.393957713960272E+08, 2.049830630369245E+08, 3.698728959491050E+07,
2460868.500000000, A.D. 2025-Jul-12 00:00:00.0000, 5.380757695444613E+08, 2.141358912021972E+08, 3.769839189558892E+07,
2460875.500000000, A.D. 2025-Jul-19 00:00:00.0000, 5.366220839221790E+08, 2.232355138528443E+08, 3.840012807255052E+07,
2460882.500000000, A.D. 2025-Jul-26 00:00:00.0000, 5.350365275597541E+08, 2.322802729860614E+08, 3.909242777459386E+07,
2460889.500000000, A.D. 2025-Aug-02 00:00:00.0000, 5.333209138351988E+08, 2.412685625940968E+08, 3.977522495732835E+07,
2460896.500000000, A.D. 2025-Aug-09 00:00:00.0000, 5.314770553357904E+08, 2.501988274651835E+08, 4.044845774617402E+07,
2460903.500000000, A.D. 2025-Aug-16 00:00:00.0000, 5.295067628429314E+08, 2.590695618354971E+08, 4.111206828342034E+07,
2460910.500000000, A.D. 2025-Aug-23 00:00:00.0000, 5.274118447304507E+08, 2.678793079111866E+08, 4.176600253418659E+07,
2460917.500000000, A.D. 2025-Aug-30 00:00:00.0000, 5.251941071032292E+08, 2.766266549765222E+08, 4.241021007979035E+07,
2460924.500000000, A.D. 2025-Sep-06 00:00:00.0000, 5.228553532555256E+08, 2.853102400901198E+08, 4.304464411064225E+07,
2460931.500000000, A.D. 2025-Sep-13 00:00:00.0000, 5.203973807762876E+08, 2.939287478885139E+08, 4.366926156946559E+07,
2460938.500000000, A.D. 2025-Sep-20 00:00:00.0000, 5.178219795736951E+08, 3.024809078541228E+08, 4.428402301065889E+07,
2460945.500000000, A.D. 2025-Sep-27 00:00:00.0000, 5.151309318754307E+08, 3.109654921596196E+08, 4.488889233310902E+07,
2460952.500000000, A.D. 2025-Oct-04 00:00:00.0000, 5.123260121852719E+08, 3.193813146286399E+08, 4.548383661555862E+07,
2460959.500000000, A.D. 2025-Oct-11 00:00:00.0000, 5.094089868199700E+08, 3.277272298707826E+08, 4.606882601180527E+07,
2460966.500000000, A.D. 2025-Oct-18 00:00:00.0000, 5.063816133078958E+08, 3.360021323174082E+08, 4.664383365729095E+07,
2460973.500000000, A.D. 2025-Oct-25 00:00:00.0000, 5.032456397868114E+08, 3.442049551701252E+08, 4.720883557509388E+07,
2460980.500000000, A.D. 2025-Nov-01 00:00:00.0000, 5.000028044380477E+08, 3.523346692783712E+08, 4.776381057881089E+07,
2460987.500000000, A.D. 2025-Nov-08 00:00:00.0000, 4.966548349895537E+08, 3.603902819156543E+08, 4.830874016639107E+07,
2460994.500000000, A.D. 2025-Nov-15 00:00:00.0000, 4.932034484337774E+08, 3.683708353969301E+08, 4.884360838634636E+07,
2461001.500000000, A.D. 2025-Nov-22 00:00:00.0000, 4.896503513614102E+08, 3.762754057581078E+08, 4.936840165715031E+07,
2461008.500000000, A.D. 2025-Nov-29 00:00:00.0000, 4.859972407560446E+08, 3.841031026331625E+08, 4.988310864631574E+07,
2461015.500000000, A.D. 2025-Dec-06 00:00:00.0000, 4.822458029700944E+08, 3.918530701933459E+08, 5.038772040663695E+07,
2461022.500000000, A.D. 2025-Dec-13 00:00:00.0000, 4.783977113141657E+08, 3.995244857794091E+08, 5.088223045434004E+07,
2461029.500000000, A.D. 2025-Dec-20 00:00:00.0000, 4.744546257524517E+08, 4.071165572506969E+08, 5.136663455229622E+07,
2461036.500000000, A.D. 2025-Dec-27 00:00:00.0000, 4.704181936289974E+08, 4.146285216424068E+08, 5.184093050835678E+07,
2461043.500000000, A.D. 2026-Jan-03 00:00:00.0000, 4.662900499639693E+08, 4.220596445158145E+08, 5.230511807223997E+07,
2461050.500000000, A.D. 2026-Jan-10 00:00:00.0000, 4.620718174283245E+08, 4.294092193232417E+08, 5.275919886541504E+07,
2461057.500000000, A.D. 2026-Jan-17 00:00:00.0000, 4.577651062282002E+08, 4.366765666969553E+08, 5.320317631519550E+07,
2461064.500000000, A.D. 2026-Jan-24 00:00:00.0000, 4.533715139757738E+08, 4.438610336854479E+08, 5.363705558779046E+07,
2461071.500000000, A.D. 2026-Jan-31 00:00:00.0000, 4.488926255688779E+08, 4.509619929305000E+08, 5.406084351761359E+07,
2461078.500000000, A.D. 2026-Feb-07 00:00:00.0000, 4.443300131397945E+08, 4.579788417285195E+08, 5.447454852259588E+07,
2461085.500000000, A.D. 2026-Feb-14 00:00:00.0000, 4.396852363253371E+08, 4.649110009616880E+08, 5.487818048112395E+07,
2461092.500000000, A.D. 2026-Feb-21 00:00:00.0000, 4.349598432450221E+08, 4.717579144765537E+08, 5.527175058227679E+07,
2461099.500000000, A.D. 2026-Feb-28 00:00:00.0000, 4.301553711015415E+08, 4.785190500635439E+08, 5.565527134309018E+07,
2461106.500000000, A.D. 2026-Mar-07 00:00:00.0000, 4.252733443435608E+08, 4.851939000873286E+08, 5.602875682229409E+07,
2461113.500000000, A.D. 2026-Mar-14 00:00:00.0000, 4.203152731658545E+08, 4.917819794357240E+08, 5.639222258544672E+07,
2461120.500000000, A.D. 2026-Mar-21 00:00:00.0000, 4.152826541294075E+08, 4.982828236847993E+08, 5.674568549480349E+07,
2461127.500000000, A.D. 2026-Mar-28 00:00:00.0000, 4.101769708910981E+08, 5.046959885079176E+08, 5.708916359221432E+07,
2461134.500000000, A.D. 2026-Apr-04 00:00:00.0000, 4.049996944379950E+08, 5.110210493624353E+08, 5.742267605151916E+07,
2461141.500000000, A.D. 2026-Apr-11 00:00:00.0000, 3.997522830990956E+08, 5.172576010937744E+08, 5.774624314601102E+07,
2461148.500000000, A.D. 2026-Apr-18 00:00:00.0000, 3.944361824929836E+08, 5.234052574500512E+08, 5.805988621597674E+07,
2461155.500000000, A.D. 2026-Apr-25 00:00:00.0000, 3.890528254567699E+08, 5.294636505219641E+08, 5.836362763353056E+07,
2461162.500000000, A.D. 2026-May-02 00:00:00.0000, 3.836036319868688E+08, 5.354324300783405E+08, 5.865749075972348E+07,
2461169.500000000, A.D. 2026-May-09 00:00:00.0000, 3.780900093162656E+08, 5.413112627310733E+08, 5.894149987727875E+07,
2461176.500000000, A.D. 2026-May-16 00:00:00.0000, 3.725133525063731E+08, 5.470998310676612E+08, 5.921568007572019E+07,
2461183.500000000, A.D. 2026-May-23 00:00:00.0000, 3.668750456054482E+08, 5.527978337733531E+08, 5.948005716770351E+07,
2461190.500000000, A.D. 2026-May-30 00:00:00.0000, 3.611764612947682E+08, 5.584049870616107E+08, 5.973465785315904E+07,
2461197.500000000, A.D. 2026-Jun-06 00:00:00.0000, 3.554189587043828E+08, 5.639210241388583E+08, 5.997950989268878E+07,
2461204.500000000, A.D. 2026-Jun-13 00:00:00.0000, 3.496038830641387E+08, 5.693456929026914E+08, 6.021464197015771E+07,
2461211.500000000, A.D. 2026-Jun-20 00:00:00.0000, 3.437325666888969E+08, 5.746787547993102E+08, 6.044008352929118E+07,
2461218.500000000, A.D. 2026-Jun-27 00:00:00.0000, 3.378063295990530E+08, 5.799199844996735E+08, 6.065586471191666E+07,
2461225.500000000, A.D. 2026-Jul-04 00:00:00.0000, 3.318264797756771E+08, 5.850691696191047E+08, 6.086201633420348E+07,
2461232.500000000, A.D. 2026-Jul-11 00:00:00.0000, 3.257943133037621E+08, 5.901261103481976E+08, 6.105856986651859E+07,
2461239.500000000, A.D. 2026-Jul-18 00:00:00.0000, 3.197111144959177E+08, 5.950906190205268E+08, 6.124555741019922E+07,
2461246.500000000, A.D. 2026-Jul-25 00:00:00.0000, 3.135781560205944E+08, 5.999625196196550E+08, 6.142301166895789E+07,
2461253.500000000, A.D. 2026-Aug-01 00:00:00.0000, 3.073966990825834E+08, 6.047416471771080E+08, 6.159096590635160E+07,
2461260.500000000, A.D. 2026-Aug-08 00:00:00.0000, 3.011679938703311E+08, 6.094278470253117E+08, 6.174945386650872E+07,
2461267.500000000, A.D. 2026-Aug-15 00:00:00.0000, 2.948932806848608E+08, 6.140209743558468E+08, 6.189850965674302E+07,
2461274.500000000, A.D. 2026-Aug-22 00:00:00.0000, 2.885737909890996E+08, 6.185208953041236E+08, 6.203816776155260E+07,
2461281.500000000, A.D. 2026-Aug-29 00:00:00.0000, 2.822107460879919E+08, 6.229274881871717E+08, 6.216846328564307E+07,
2461288.500000000, A.D. 2026-Sep-05 00:00:00.0000, 2.758053555722679E+08, 6.272406420264062E+08, 6.228943199590483E+07,
$$EOE